{"crs": {"properties": {"name": "urn:ogc:def:crs:EPSG::2326"}, "type": "name"}, "features": [{"geometry": {"coordinates": [[[835718.7500000009, 818573.5625000019], [835716.3672000011, 818600.0000000019], [835714.8125000009, 818617.2500000019]]], "type": "MultiLineString"}, "properties": {"CHINESESTREETNAME": "彌敦道", "ENGLISHSTREETNAME": "NATHAN ROAD", "LASTUPDATEDATE": 1693670400000, "OBJECTID": 214, "STREETCENTRELINEID": 1810268495, "STREETCODE": 11504, "STREETTYPE": "Main Road", "Shape__Length": 43.86458209651422}, "type": "Feature"}, {"geometry": {"coordinates": [[[835741.302600001, 818255.8489000015], [835736.2648000009, 818332.9504000023]]], "type": "MultiLineString"}, "properties": {"CHINESESTREETNAME": "彌敦道", "ENGLISHSTREETNAME": "NATHAN ROAD", "LASTUPDATEDATE": 1693670400000, "OBJECTID": 251, "STREETCENTRELINEID": 1810268876, "STREETCODE": 11504, "STREETTYPE": "Main Road", "Shape__Length": 77.26590924343398}, "type": "Feature"}, {"geometry": {"coordinates": [[[835425.6185000008, 820389.4712000024], [835418.4952000007, 820428.1208000015]]], "type": "MultiLineString"}, "properties": {"CHINESESTREETNAME": "彌敦道", "ENGLISHSTREETNAME": "NATHAN ROAD", "LASTUPDATEDATE": 1693670400000, "OBJECTID": 254, "STREETCENTRELINEID": 1810265627, "STREETCODE": 11504, "STREETTYPE": "Main Road", "Shape__Length": 39.300546853557606}, "type": "Feature"}, {"geometry": {"coordinates": [[[835608.6097000008, 819436.3160000015], [835595.1446000012, 819507.6811000016]]], "type": "MultiLineString"}, "properties": {"CHINESESTREETNAME": "彌敦道", "ENGLISHSTREETNAME": "NATHAN ROAD", "LASTUPDATEDATE": 1693670400000, "OBJECTID": 1557, "STREETCENTRELINEID": 1810267332, "STREETCODE": 11504, "STREETTYPE": "Main Road", "Shape__Length": 72.62428255080437}, "type": "Feature"}, {"geometry": {"coordinates": [[[835459.9222000008, 820203.3447000012], [835435.3349000011, 820336.7514000013]]], "type": "MultiLineString"}, "properties": {"CHINESESTREETNAME": "彌敦道", "ENGLISHSTREETNAME": "NATHAN ROAD", "LASTUPDATEDATE": 1693670400000, "OBJECTID": 1561, "STREETCENTRELINEID": 1810265976, "STREETCODE": 11504, "STREETTYPE": "Main Road", "Shape__Length": 135.6535400430588}, "type": "Feature"}, {"geometry": {"coordinates": [[[835532.0894000009, 819836.3856000025], [835493.171000001, 820036.2755000014]]], "type": "MultiLineString"}, "properties": {"CHINESESTREETNAME": "彌敦道", "ENGLISHSTREETNAME": "NATHAN ROAD", "LASTUPDATEDATE": 1693670400000, "OBJECTID": 1563, "STREETCENTRELINEID": 1810266695, "STREETCODE": 11504, "STREETTYPE": "Main Road", "Shape__Length": 203.64334995309775}, "type": "Feature"}, {"geometry": {"coordinates": [[[835755.1682000011, 818036.9208000023], [835755.1203000005, 818037.634800002], [835745.3750000009, 818187.8125000019]]], "type": "MultiLineString"}, "properties": {"CHINESESTREETNAME": "彌敦道", "ENGLISHSTREETNAME": "NATHAN ROAD", "LASTUPDATEDATE": 1693670400000, "OBJECTID": 1594, "STREETCENTRELINEID": 1810269085, "STREETCODE": 11504, "STREETTYPE": "Main Road", "Shape__Length": 151.20916774258995}, "type": "Feature"}, {"geometry": {"coordinates": [[[835668.0043000011, 819104.8925000019], [835653.8019000012, 819185.1566000022], [835649.0830000006, 819212.281700002]]], "type": "MultiLineString"}, "properties": {"CHINESESTREETNAME": "彌敦道", "ENGLISHSTREETNAME": "NATHAN ROAD", "LASTUPDATEDATE": 1693670400000, "OBJECTID": 1608, "STREETCENTRELINEID": 1810267743, "STREETCODE": 11504, "STREETTYPE": "Main Road", "Shape__Length": 109.04345280601052}, "type": "Feature"}, {"geometry": {"coordinates": [[[835627.6871000007, 819335.2055000011], [835608.6097000008, 819436.3160000015]]], "type": "MultiLineString"}, "properties": {"CHINESESTREETNAME": "彌敦道", "ENGLISHSTREETNAME": "NATHAN ROAD", "LASTUPDATEDATE": 1693670400000, "OBJECTID": 1749, "STREETCENTRELINEID": 1810267454, "STREETCODE": 11504, "STREETTYPE": "Main Road", "Shape__Length": 102.89451103478777}, "type": "Feature"}, {"geometry": {"coordinates": [[[835578.2155000009, 819596.2233000025], [835563.4631000012, 819673.380400002]]], "type": "MultiLineString"}, "properties": {"CHINESESTREETNAME": "彌敦道", "ENGLISHSTREETNAME": "NATHAN ROAD", "LASTUPDATEDATE": 1693670400000, "OBJECTID": 2819, "STREETCENTRELINEID": 1810267108, "STREETCODE": 11504, "STREETTYPE": "Main Road", "Shape__Length": 78.55476679413238}, "type": "Feature"}, {"geometry": {"coordinates": [[[835780.9750000006, 817638.3649000023], [835777.2926000012, 817690.2019000016], [835777.2659000009, 817690.7761000022]]], "type": "MultiLineString"}, "properties": {"CHINESESTREETNAME": "彌敦道", "ENGLISHSTREETNAME": "NATHAN ROAD", "LASTUPDATEDATE": 1693670400000, "OBJECTID": 2838, "STREETCENTRELINEID": 1810269353, "STREETCODE": 11504, "STREETTYPE": "Main Road", "Shape__Length": 52.542451115342104}, "type": "Feature"}, {"geometry": {"coordinates": [[[835695.6875000009, 818828.6250000019], [835689.0494000008, 818901.8857000023], [835688.8367000008, 818904.1813000012], [835688.8125000009, 818904.5000000019], [835681.293800001, 818987.5238000024]]], "type": "MultiLineString"}, "properties": {"CHINESESTREETNAME": "彌敦道", "ENGLISHSTREETNAME": "NATHAN ROAD", "LASTUPDATEDATE": 1693670400000, "OBJECTID": 2890, "STREETCENTRELINEID": 1810268086, "STREETCODE": 11504, "STREETTYPE": "Main Road", "Shape__Length": 159.549426832731}, "type": "Feature"}, {"geometry": {"coordinates": [[[835676.8750000009, 819036.5625000019], [835673.4375000009, 819074.1875000019], [835668.0043000011, 819104.8925000019]]], "type": "MultiLineString"}, "properties": {"CHINESESTREETNAME": "彌敦道", "ENGLISHSTREETNAME": "NATHAN ROAD", "LASTUPDATEDATE": 1693670400000, "OBJECTID": 2917, "STREETCENTRELINEID": 1810267825, "STREETCODE": 11504, "STREETTYPE": "Main Road", "Shape__Length": 68.96369533058181}, "type": "Feature"}, {"geometry": {"coordinates": [[[835709.5625000009, 818675.3750000019], [835702.5625000009, 818752.8750000019], [835702.3483000007, 818755.1656000018]]], "type": "MultiLineString"}, "properties": {"CHINESESTREETNAME": "彌敦道", "ENGLISHSTREETNAME": "NATHAN ROAD", "LASTUPDATEDATE": 1693670400000, "OBJECTID": 2923, "STREETCENTRELINEID": 1810268316, "STREETCODE": 11504, "STREETTYPE": "Main Road", "Shape__Length": 80.11608029215148}, "type": "Feature"}, {"geometry": {"coordinates": [[[835435.3349000011, 820336.7514000013], [835425.6185000008, 820389.4712000024]]], "type": "MultiLineString"}, "properties": {"CHINESESTREETNAME": "彌敦道", "ENGLISHSTREETNAME": "NATHAN ROAD", "LASTUPDATEDATE": 1693670400000, "OBJECTID": 2944, "STREETCENTRELINEID": 1810265705, "STREETCODE": 11504, "STREETTYPE": "Main Road", "Shape__Length": 53.60770225547546}, "type": "Feature"}, {"geometry": {"coordinates": [[[835649.0830000006, 819212.281700002], [835627.8328000009, 819334.4331000019], [835627.6871000007, 819335.2055000011]]], "type": "MultiLineString"}, "properties": {"CHINESESTREETNAME": "彌敦道", "ENGLISHSTREETNAME": "NATHAN ROAD", "LASTUPDATEDATE": 1693670400000, "OBJECTID": 3932, "STREETCENTRELINEID": 1810267615, "STREETCODE": 11504, "STREETTYPE": "Main Road", "Shape__Length": 124.77205132994244}, "type": "Feature"}, {"geometry": {"coordinates": [[[835563.4631000012, 819673.380400002], [835561.3667000011, 819686.0139000025], [835532.0894000009, 819836.3856000025]]], "type": "MultiLineString"}, "properties": {"CHINESESTREETNAME": "彌敦道", "ENGLISHSTREETNAME": "NATHAN ROAD", "LASTUPDATEDATE": 1693670400000, "OBJECTID": 4033, "STREETCENTRELINEID": 1810266977, "STREETCODE": 11504, "STREETTYPE": "Main Road", "Shape__Length": 166.00158466628685}, "type": "Feature"}, {"geometry": {"coordinates": [[[835801.6218000008, 817310.352500001], [835797.3275000006, 817400.0000000019], [835796.837700001, 817408.9224000014], [835796.700100001, 817410.8167000022]]], "type": "MultiLineString"}, "properties": {"CHINESESTREETNAME": "彌敦道", "ENGLISHSTREETNAME": "NATHAN ROAD", "LASTUPDATEDATE": 1693670400000, "OBJECTID": 7674, "STREETCENTRELINEID": 1810269568, "STREETCODE": 11504, "STREETTYPE": "Main Road", "Shape__Length": 100.58541876864183}, "type": "Feature"}, {"geometry": {"coordinates": [[[835761.6875000009, 817939.8125000019], [835755.1682000011, 818036.9208000023]]], "type": "MultiLineString"}, "properties": {"CHINESESTREETNAME": "彌敦道", "ENGLISHSTREETNAME": "NATHAN ROAD", "LASTUPDATEDATE": 1693670400000, "OBJECTID": 7700, "STREETCENTRELINEID": 1810269169, "STREETCODE": 11504, "STREETTYPE": "Main Road", "Shape__Length": 97.32688837860215}, "type": "Feature"}, {"geometry": {"coordinates": [[[835595.1446000012, 819507.6811000016], [835578.2155000009, 819596.2233000025]]], "type": "MultiLineString"}, "properties": {"CHINESESTREETNAME": "彌敦道", "ENGLISHSTREETNAME": "NATHAN ROAD", "LASTUPDATEDATE": 1693670400000, "OBJECTID": 11232, "STREETCENTRELINEID": 1810267242, "STREETCODE": 11504, "STREETTYPE": "Main Road", "Shape__Length": 90.1460792704239}, "type": "Feature"}, {"geometry": {"coordinates": [[[835720.4766000006, 818554.8166000023], [835718.7500000009, 818573.5625000019]]], "type": "MultiLineString"}, "properties": {"CHINESESTREETNAME": "彌敦道", "ENGLISHSTREETNAME": "NATHAN ROAD", "LASTUPDATEDATE": 1693670400000, "OBJECTID": 11235, "STREETCENTRELINEID": 1810268518, "STREETCODE": 11504, "STREETTYPE": "Main Road", "Shape__Length": 18.825246727487087}, "type": "Feature"}, {"geometry": {"coordinates": [[[835733.3302000007, 818381.1478000022], [835726.5000000009, 818488.5625000019], [835726.4375000009, 818489.1250000019]]], "type": "MultiLineString"}, "properties": {"CHINESESTREETNAME": "彌敦道", "ENGLISHSTREETNAME": "NATHAN ROAD", "LASTUPDATEDATE": 1711382400000, "OBJECTID": 11263, "STREETCENTRELINEID": 1810268722, "STREETCODE": 11504, "STREETTYPE": "Main Road", "Shape__Length": 108.1975991506287}, "type": "Feature"}, {"geometry": {"coordinates": [[[835418.4952000007, 820428.1208000015], [835415.2509000013, 820445.724200001]]], "type": "MultiLineString"}, "properties": {"CHINESESTREETNAME": "彌敦道", "ENGLISHSTREETNAME": "NATHAN ROAD", "LASTUPDATEDATE": 1693670400000, "OBJECTID": 11276, "STREETCENTRELINEID": 1810265559, "STREETCODE": 11504, "STREETTYPE": "Main Road", "Shape__Length": 17.899865195766953}, "type": "Feature"}, {"geometry": {"coordinates": [[[835493.171000001, 820036.2755000014], [835493.142500001, 820036.422100002], [835473.3974000011, 820139.4712000024]]], "type": "MultiLineString"}, "properties": {"CHINESESTREETNAME": "彌敦道", "ENGLISHSTREETNAME": "NATHAN ROAD", "LASTUPDATEDATE": 1693670400000, "OBJECTID": 11279, "STREETCENTRELINEID": 1810266312, "STREETCODE": 11504, "STREETTYPE": "Main Road", "Shape__Length": 105.07305967593133}, "type": "Feature"}, {"geometry": {"coordinates": [[[835736.2648000009, 818332.9504000023], [835733.3302000007, 818381.1478000022]]], "type": "MultiLineString"}, "properties": {"CHINESESTREETNAME": "彌敦道", "ENGLISHSTREETNAME": "NATHAN ROAD", "LASTUPDATEDATE": 1711382400000, "OBJECTID": 13536, "STREETCENTRELINEID": 1810268789, "STREETCODE": 11504, "STREETTYPE": "Main Road", "Shape__Length": 48.286656996694354}, "type": "Feature"}, {"geometry": {"coordinates": [[[835370.6498000007, 820678.1829000022], [835352.9028000012, 820772.6517000012], [835348.7131000012, 820792.6693000011], [835343.5923000006, 820810.3593000025], [835336.3337000012, 820830.6113000009]]], "type": "MultiLineString"}, "properties": {"CHINESESTREETNAME": "彌敦道", "ENGLISHSTREETNAME": "NATHAN ROAD", "LASTUPDATEDATE": 1693670400000, "OBJECTID": 13575, "STREETCENTRELINEID": 1810265193, "STREETCODE": 11504, "STREETTYPE": "Main Road", "Shape__Length": 156.50244876361768}, "type": "Feature"}, {"geometry": {"coordinates": [[[835774.4375000009, 817751.5000000019], [835768.3125000009, 817842.0625000019]]], "type": "MultiLineString"}, "properties": {"CHINESESTREETNAME": "彌敦道", "ENGLISHSTREETNAME": "NATHAN ROAD", "LASTUPDATEDATE": 1693670400000, "OBJECTID": 13647, "STREETCENTRELINEID": 1810269285, "STREETCODE": 11504, "STREETTYPE": "Main Road", "Shape__Length": 90.76938928543036}, "type": "Feature"}, {"geometry": {"coordinates": [[[835726.4375000009, 818489.1250000019], [835720.4766000006, 818554.8166000023]]], "type": "MultiLineString"}, "properties": {"CHINESESTREETNAME": "彌敦道", "ENGLISHSTREETNAME": "NATHAN ROAD", "LASTUPDATEDATE": 1693670400000, "OBJECTID": 15663, "STREETCENTRELINEID": 1810268613, "STREETCODE": 11504, "STREETTYPE": "Main Road", "Shape__Length": 65.9614936113287}, "type": "Feature"}, {"geometry": {"coordinates": [[[835473.3974000011, 820139.4712000024], [835473.3283000011, 820139.8322000019], [835459.9222000008, 820203.3447000012]]], "type": "MultiLineString"}, "properties": {"CHINESESTREETNAME": "彌敦道", "ENGLISHSTREETNAME": "NATHAN ROAD", "LASTUPDATEDATE": 1693670400000, "OBJECTID": 15807, "STREETCENTRELINEID": 1810266107, "STREETCODE": 11504, "STREETTYPE": "Main Road", "Shape__Length": 65.2795032069261}, "type": "Feature"}, {"geometry": {"coordinates": [[[835714.8125000009, 818617.2500000019], [835709.5625000009, 818675.3750000019]]], "type": "MultiLineString"}, "properties": {"CHINESESTREETNAME": "彌敦道", "ENGLISHSTREETNAME": "NATHAN ROAD", "LASTUPDATEDATE": 1693670400000, "OBJECTID": 16612, "STREETCENTRELINEID": 1810268422, "STREETCODE": 11504, "STREETTYPE": "Main Road", "Shape__Length": 58.36161516784812}, "type": "Feature"}, {"geometry": {"coordinates": [[[835394.8539000005, 820549.3422000017], [835393.4006000012, 820557.0784000009], [835370.6498000007, 820678.1829000022]]], "type": "MultiLineString"}, "properties": {"CHINESESTREETNAME": "彌敦道", "ENGLISHSTREETNAME": "NATHAN ROAD", "LASTUPDATEDATE": 1693670400000, "OBJECTID": 16755, "STREETCENTRELINEID": 1810265372, "STREETCODE": 11504, "STREETTYPE": "Main Road", "Shape__Length": 131.094486663001}, "type": "Feature"}, {"geometry": {"coordinates": [[[835745.3750000009, 818187.8125000019], [835741.302600001, 818255.8489000015]]], "type": "MultiLineString"}, "properties": {"CHINESESTREETNAME": "彌敦道", "ENGLISHSTREETNAME": "NATHAN ROAD", "LASTUPDATEDATE": 1693670400000, "OBJECTID": 16788, "STREETCENTRELINEID": 1810268949, "STREETCODE": 11504, "STREETTYPE": "Main Road", "Shape__Length": 68.15817021215932}, "type": "Feature"}, {"geometry": {"coordinates": [[[835702.3483000007, 818755.1656000018], [835702.1232000012, 818757.571800001], [835701.7500000009, 818761.5625000019], [835695.6875000009, 818828.6250000019]]], "type": "MultiLineString"}, "properties": {"CHINESESTREETNAME": "彌敦道", "ENGLISHSTREETNAME": "NATHAN ROAD", "LASTUPDATEDATE": 1693670400000, "OBJECTID": 20931, "STREETCENTRELINEID": 1810268175, "STREETCODE": 11504, "STREETTYPE": "Main Road", "Shape__Length": 73.76078815891057}, "type": "Feature"}, {"geometry": {"coordinates": [[[835415.2509000013, 820445.724200001], [835405.4124000007, 820499.1062000021], [835398.7608000012, 820531.0681000017], [835394.8539000005, 820549.3422000017]]], "type": "MultiLineString"}, "properties": {"CHINESESTREETNAME": "彌敦道", "ENGLISHSTREETNAME": "NATHAN ROAD", "LASTUPDATEDATE": 1693670400000, "OBJECTID": 20946, "STREETCENTRELINEID": 1810265538, "STREETCODE": 11504, "STREETTYPE": "Main Road", "Shape__Length": 105.61483239133746}, "type": "Feature"}, {"geometry": {"coordinates": [[[835777.2659000009, 817690.7761000022], [835774.4375000009, 817751.5000000019]]], "type": "MultiLineString"}, "properties": {"CHINESESTREETNAME": "彌敦道", "ENGLISHSTREETNAME": "NATHAN ROAD", "LASTUPDATEDATE": 1693670400000, "OBJECTID": 20970, "STREETCENTRELINEID": 1810269321, "STREETCODE": 11504, "STREETTYPE": "Main Road", "Shape__Length": 60.78973497002165}, "type": "Feature"}, {"geometry": {"coordinates": [[[835786.5650000004, 817558.099200001], [835780.9750000006, 817638.3649000023]]], "type": "MultiLineString"}, "properties": {"CHINESESTREETNAME": "彌敦道", "ENGLISHSTREETNAME": "NATHAN ROAD", "LASTUPDATEDATE": 1693670400000, "OBJECTID": 26297, "STREETCENTRELINEID": 1810269403, "STREETCODE": 11504, "STREETTYPE": "Main Road", "Shape__Length": 80.46011867187458}, "type": "Feature"}, {"geometry": {"coordinates": [[[835789.7523000007, 817506.4645000026], [835788.339900001, 817525.9097000025], [835786.5650000004, 817558.099200001]]], "type": "MultiLineString"}, "properties": {"CHINESESTREETNAME": "彌敦道", "ENGLISHSTREETNAME": "NATHAN ROAD", "LASTUPDATEDATE": 1693670400000, "OBJECTID": 26299, "STREETCENTRELINEID": 1810269428, "STREETCODE": 11504, "STREETTYPE": "Main Road", "Shape__Length": 51.73482333735302}, "type": "Feature"}, {"geometry": {"coordinates": [[[835796.700100001, 817410.8167000022], [835789.7523000007, 817506.4645000026]]], "type": "MultiLineString"}, "properties": {"CHINESESTREETNAME": "彌敦道", "ENGLISHSTREETNAME": "NATHAN ROAD", "LASTUPDATEDATE": 1693670400000, "OBJECTID": 30657, "STREETCENTRELINEID": 1810269480, "STREETCODE": 11504, "STREETTYPE": "Main Road", "Shape__Length": 95.89981006110648}, "type": "Feature"}, {"geometry": {"coordinates": [[[835681.293800001, 818987.5238000024], [835681.2316000005, 818988.2102000024], [835676.8750000009, 819036.5625000019]]], "type": "MultiLineString"}, "properties": {"CHINESESTREETNAME": "彌敦道", "ENGLISHSTREETNAME": "NATHAN ROAD", "LASTUPDATEDATE": 1693670400000, "OBJECTID": 30846, "STREETCENTRELINEID": 1810298125, "STREETCODE": 11504, "STREETTYPE": "Main Road", "Shape__Length": 49.23738315406345}, "type": "Feature"}, {"geometry": {"coordinates": [[[835768.3125000009, 817842.0625000019], [835761.6875000009, 817939.8125000019]]], "type": "MultiLineString"}, "properties": {"CHINESESTREETNAME": "彌敦道", "ENGLISHSTREETNAME": "NATHAN ROAD", "LASTUPDATEDATE": 1693670400000, "OBJECTID": 32579, "STREETCENTRELINEID": 1810269240, "STREETCODE": 11504, "STREETTYPE": "Main Road", "Shape__Length": 97.97424725406161}, "type": "Feature"}], "type": "FeatureCollection"}
