{"crs": {"properties": {"name": "urn:ogc:def:crs:EPSG::2326"}, "type": "name"}, "features": [{"geometry": {"coordinates": [829847.5999999996, 825841.4000000004], "type": "Point"}, "properties": {"ADDRESS_EN": "Princess Alexandra Community Centre, 60 Tai Ho Road, Tsuen Wan, New Territories", "ADDRESS_TC": "新界荃灣大河道60號雅麗珊社區中心", "DATASET_EN": "Air Quality Monitoring Network of Hong Kong", "DATASET_TC": "香港空氣質素監測網絡", "EASTING": 829847.6, "LASTUPDATE": 1770172216000, "LATITUDE": 22.37174191, "LONGITUDE": 114.11453491, "NAME_EN": "Tsuen Wan Air Quality Monitoring Station", "NAME_TC": "荃灣空氣質素監測站", "NORTHING": 825841.4, "NSEARCH01_EN": "N.A.", "NSEARCH01_TC": "N.A.", "NSEARCH02_EN": "N.A.", "NSEARCH02_TC": "N.A.", "NSEARCH03_EN": "N.A.", "NSEARCH03_TC": "N.A.", "NSEARCH04_EN": "N.A.", "NSEARCH04_TC": "N.A.", "NSEARCH05_EN": "https://www.aqhi.gov.hk/en/monitoring-network/air-quality-monitoring-stations.html?mid=6", "NSEARCH05_TC": "https://www.aqhi.gov.hk/tc/monitoring-network/air-quality-monitoring-stations.html?mid=6", "OBJECTID": 1, "SEARCH01_EN": "GENERAL MONITORING STATION", "SEARCH01_TC": "一般監測站"}, "type": "Feature"}, {"geometry": {"coordinates": [837114.7000000002, 815695.8000000007], "type": "Point"}, "properties": {"ADDRESS_EN": "1 Yee Wo Street, Causeway Bay, Hong Kong", "ADDRESS_TC": "香港銅鑼灣怡和街1號", "DATASET_EN": "Air Quality Monitoring Network of Hong Kong", "DATASET_TC": "香港空氣質素監測網絡", "EASTING": 837114.7000000001, "LASTUPDATE": 1770172173000, "LATITUDE": 22.28013296, "LONGITUDE": 114.18509009, "NAME_EN": "Causeway Bay Air Quality Monitoring Station", "NAME_TC": "銅鑼灣空氣質素監測站", "NORTHING": 815695.8, "NSEARCH01_EN": "N.A.", "NSEARCH01_TC": "N.A.", "NSEARCH02_EN": "N.A.", "NSEARCH02_TC": "N.A.", "NSEARCH03_EN": "N.A.", "NSEARCH03_TC": "N.A.", "NSEARCH04_EN": "N.A.", "NSEARCH04_TC": "N.A.", "NSEARCH05_EN": "https://www.aqhi.gov.hk/en/monitoring-network/air-quality-monitoring-stations.html?mid=15", "NSEARCH05_TC": "https://www.aqhi.gov.hk/tc/monitoring-network/air-quality-monitoring-stations.html?mid=15", "OBJECTID": 2, "SEARCH01_EN": "ROADSIDE MONITORING STATION", "SEARCH01_TC": "路邊監測站"}, "type": "Feature"}, {"geometry": {"coordinates": [834336, 815882.0999999996], "type": "Point"}, "properties": {"ADDRESS_EN": "Junction of Chater Road and Des Voeux Road Central, Central, Hong Kong", "ADDRESS_TC": "香港中環遮打道與德輔道中交界", "DATASET_EN": "Air Quality Monitoring Network of Hong Kong", "DATASET_TC": "香港空氣質素監測網絡", "EASTING": 834336, "LASTUPDATE": 1770172131000, "LATITUDE": 22.2818145, "LONGITUDE": 114.15812743, "NAME_EN": "Central Air Quality Monitoring Station", "NAME_TC": "中環空氣質素監測站", "NORTHING": 815882.1, "NSEARCH01_EN": "N.A.", "NSEARCH01_TC": "N.A.", "NSEARCH02_EN": "N.A.", "NSEARCH02_TC": "N.A.", "NSEARCH03_EN": "N.A.", "NSEARCH03_TC": "N.A.", "NSEARCH04_EN": "N.A.", "NSEARCH04_TC": "N.A.", "NSEARCH05_EN": "https://www.aqhi.gov.hk/en/monitoring-network/air-quality-monitoring-stations.html?mid=16", "NSEARCH05_TC": "https://www.aqhi.gov.hk/tc/monitoring-network/air-quality-monitoring-stations.html?mid=16", "OBJECTID": 3, "SEARCH01_EN": "ROADSIDE MONITORING STATION", "SEARCH01_TC": "路邊監測站"}, "type": "Feature"}, {"geometry": {"coordinates": [832923.5, 816223], "type": "Point"}, "properties": {"ADDRESS_EN": "Sai Ying Pun Community Complex, 2 High Street, Central & Western, Hong Kong", "ADDRESS_TC": "香港中西區高街2號西營盤社區綜合大樓", "DATASET_EN": "Air Quality Monitoring Network of Hong Kong", "DATASET_TC": "香港空氣質素監測網絡", "EASTING": 832923.5, "LASTUPDATE": 1770172083000, "LATITUDE": 22.28489089, "LONGITUDE": 114.14442071, "NAME_EN": "Central/Western Air Quality Monitoring Station", "NAME_TC": "中西區空氣質素監測站", "NORTHING": 816223, "NSEARCH01_EN": "N.A.", "NSEARCH01_TC": "N.A.", "NSEARCH02_EN": "N.A.", "NSEARCH02_TC": "N.A.", "NSEARCH03_EN": "N.A.", "NSEARCH03_TC": "N.A.", "NSEARCH04_EN": "N.A.", "NSEARCH04_TC": "N.A.", "NSEARCH05_EN": "https://www.aqhi.gov.hk/en/monitoring-network/air-quality-monitoring-stations.html?mid=0", "NSEARCH05_TC": "https://www.aqhi.gov.hk/tc/monitoring-network/air-quality-monitoring-stations.html?mid=0", "OBJECTID": 4, "SEARCH01_EN": "GENERAL MONITORING STATION", "SEARCH01_TC": "一般監測站"}, "type": "Feature"}, {"geometry": {"coordinates": [835381.7000000002, 820399.5999999996], "type": "Point"}, "properties": {"ADDRESS_EN": "Junction of Nathan Road and Lai Chi Kok Road, Mong Kok, Kowloon", "ADDRESS_TC": "九龍旺角彌敦道與荔枝角道交界", "DATASET_EN": "Air Quality Monitoring Network of Hong Kong", "DATASET_TC": "香港空氣質素監測網絡", "EASTING": 835381.7000000001, "LASTUPDATE": 1770172044000, "LATITUDE": 22.32261115, "LONGITUDE": 114.16827176, "NAME_EN": "Mong Kok Air Quality Monitoring Station", "NAME_TC": "旺角空氣質素監測站", "NORTHING": 820399.6, "NSEARCH01_EN": "N.A.", "NSEARCH01_TC": "N.A.", "NSEARCH02_EN": "N.A.", "NSEARCH02_TC": "N.A.", "NSEARCH03_EN": "N.A.", "NSEARCH03_TC": "N.A.", "NSEARCH04_EN": "N.A.", "NSEARCH04_TC": "N.A.", "NSEARCH05_EN": "https://www.aqhi.gov.hk/en/monitoring-network/air-quality-monitoring-stations.html?mid=17", "NSEARCH05_TC": "https://www.aqhi.gov.hk/tc/monitoring-network/air-quality-monitoring-stations.html?mid=17", "OBJECTID": 5, "SEARCH01_EN": "ROADSIDE MONITORING STATION", "SEARCH01_TC": "路邊監測站"}, "type": "Feature"}, {"geometry": {"coordinates": [835001.5, 834612.4000000004], "type": "Point"}, "properties": {"ADDRESS_EN": "Tai Po Government Offices Building, 1 Ting Kok Road, Tai Po, New Territories", "ADDRESS_TC": "新界大埔汀角路1號大埔政府合署", "DATASET_EN": "Air Quality Monitoring Network of Hong Kong", "DATASET_TC": "香港空氣質素監測網絡", "EASTING": 835001.5, "LASTUPDATE": 1770172007000, "LATITUDE": 22.45095988, "LONGITUDE": 114.16457022, "NAME_EN": "Tai Po Air Quality Monitoring Station", "NAME_TC": "大埔空氣質素監測站", "NORTHING": 834612.4, "NSEARCH01_EN": "N.A.", "NSEARCH01_TC": "N.A.", "NSEARCH02_EN": "N.A.", "NSEARCH02_TC": "N.A.", "NSEARCH03_EN": "N.A.", "NSEARCH03_TC": "N.A.", "NSEARCH04_EN": "N.A.", "NSEARCH04_TC": "N.A.", "NSEARCH05_EN": "https://www.aqhi.gov.hk/en/monitoring-network/air-quality-monitoring-stations.html?mid=11", "NSEARCH05_TC": "https://www.aqhi.gov.hk/tc/monitoring-network/air-quality-monitoring-stations.html?mid=11", "OBJECTID": 6, "SEARCH01_EN": "GENERAL MONITORING STATION", "SEARCH01_TC": "一般監測站"}, "type": "Feature"}, {"geometry": {"coordinates": [834437.7999999998, 821242.9000000004], "type": "Point"}, "properties": {"ADDRESS_EN": "Sham Shui Po Police Station, 37A Yen Chow Street, Sham Shui Po, Kowloon", "ADDRESS_TC": "九龍深水埗欽州街37號A深水埗警署", "DATASET_EN": "Air Quality Monitoring Network of Hong Kong", "DATASET_TC": "香港空氣質素監測網絡", "EASTING": 834437.8, "LASTUPDATE": 1770171935000, "LATITUDE": 22.3302259, "LONGITUDE": 114.15910913, "NAME_EN": "Sham Shui Po Air Quality Monitoring Station", "NAME_TC": "深水埗空氣質素監測站", "NORTHING": 821242.9, "NSEARCH01_EN": "N.A.", "NSEARCH01_TC": "N.A.", "NSEARCH02_EN": "N.A.", "NSEARCH02_TC": "N.A.", "NSEARCH03_EN": "N.A.", "NSEARCH03_TC": "N.A.", "NSEARCH04_EN": "N.A.", "NSEARCH04_TC": "N.A.", "NSEARCH05_EN": "https://www.aqhi.gov.hk/en/monitoring-network/air-quality-monitoring-stations.html?mid=4", "NSEARCH05_TC": "https://www.aqhi.gov.hk/tc/monitoring-network/air-quality-monitoring-stations.html?mid=4", "OBJECTID": 7, "SEARCH01_EN": "GENERAL MONITORING STATION", "SEARCH01_TC": "一般監測站"}, "type": "Feature"}, {"geometry": {"coordinates": [837056.5999999996, 826342.6999999993], "type": "Point"}, "properties": {"ADDRESS_EN": "Sha Tin Government Secondary School, 11-17 Man Lai Road, Sha Tin, New Territories", "ADDRESS_TC": "新界沙田文禮路11-17號沙田官立中學", "DATASET_EN": "Air Quality Monitoring Network of Hong Kong", "DATASET_TC": "香港空氣質素監測網絡", "EASTING": 837056.6, "LASTUPDATE": 1770171888000, "LATITUDE": 22.37628072, "LONGITUDE": 114.18453161, "NAME_EN": "Sha Tin Air Quality Monitoring Station", "NAME_TC": "沙田空氣質素監測站", "NORTHING": 826342.7000000001, "NSEARCH01_EN": "N.A.", "NSEARCH01_TC": "N.A.", "NSEARCH02_EN": "N.A.", "NSEARCH02_TC": "N.A.", "NSEARCH03_EN": "N.A.", "NSEARCH03_TC": "N.A.", "NSEARCH04_EN": "N.A.", "NSEARCH04_TC": "N.A.", "NSEARCH05_EN": "https://www.aqhi.gov.hk/en/monitoring-network/air-quality-monitoring-stations.html?mid=12", "NSEARCH05_TC": "https://www.aqhi.gov.hk/tc/monitoring-network/air-quality-monitoring-stations.html?mid=12", "OBJECTID": 8, "SEARCH01_EN": "GENERAL MONITORING STATION", "SEARCH01_TC": "一般監測站"}, "type": "Feature"}, {"geometry": {"coordinates": [820392.5, 833977.6999999993], "type": "Point"}, "properties": {"ADDRESS_EN": "Yuen Long District Office Building, 269 Castle Peak Road, Yuen Long, New Territories", "ADDRESS_TC": "新界元朗青山公路269號元朗民政事務處大廈", "DATASET_EN": "Air Quality Monitoring Network of Hong Kong", "DATASET_TC": "香港空氣質素監測網絡", "EASTING": 820392.5, "LASTUPDATE": 1770171849000, "LATITUDE": 22.44515508, "LONGITUDE": 114.02264888, "NAME_EN": "Yuen Long Air Quality Monitoring Station", "NAME_TC": "元朗空氣質素監測站", "NORTHING": 833977.7000000001, "NSEARCH01_EN": "N.A.", "NSEARCH01_TC": "N.A.", "NSEARCH02_EN": "N.A.", "NSEARCH02_TC": "N.A.", "NSEARCH03_EN": "N.A.", "NSEARCH03_TC": "N.A.", "NSEARCH04_EN": "N.A.", "NSEARCH04_TC": "N.A.", "NSEARCH05_EN": "https://www.aqhi.gov.hk/en/monitoring-network/air-quality-monitoring-stations.html?mid=8", "NSEARCH05_TC": "https://www.aqhi.gov.hk/tc/monitoring-network/air-quality-monitoring-stations.html?mid=8", "OBJECTID": 9, "SEARCH01_EN": "GENERAL MONITORING STATION", "SEARCH01_TC": "一般監測站"}, "type": "Feature"}, {"geometry": {"coordinates": [831398.7999999998, 824219.9000000004], "type": "Point"}, "properties": {"ADDRESS_EN": "Kwai Chung Police Station, 999 Kwai Chung Road, Kwai Chung, New Territories", "ADDRESS_TC": "新界葵涌葵涌道999號葵涌警署", "DATASET_EN": "Air Quality Monitoring Network of Hong Kong", "DATASET_TC": "香港空氣質素監測網絡", "EASTING": 831398.8, "LASTUPDATE": 1770171801000, "LATITUDE": 22.35710398, "LONGITUDE": 114.12960136, "NAME_EN": "Kwai Chung Air Quality Monitoring Station", "NAME_TC": "葵涌空氣質素監測站", "NORTHING": 824219.9, "NSEARCH01_EN": "N.A.", "NSEARCH01_TC": "N.A.", "NSEARCH02_EN": "N.A.", "NSEARCH02_TC": "N.A.", "NSEARCH03_EN": "N.A.", "NSEARCH03_TC": "N.A.", "NSEARCH04_EN": "N.A.", "NSEARCH04_TC": "N.A.", "NSEARCH05_EN": "https://www.aqhi.gov.hk/en/monitoring-network/air-quality-monitoring-stations.html?mid=5", "NSEARCH05_TC": "https://www.aqhi.gov.hk/tc/monitoring-network/air-quality-monitoring-stations.html?mid=5", "OBJECTID": 10, "SEARCH01_EN": "GENERAL MONITORING STATION", "SEARCH01_TC": "一般監測站"}, "type": "Feature"}, {"geometry": {"coordinates": [855188.7999999998, 836878.1999999993], "type": "Point"}, "properties": {"ADDRESS_EN": "Tap Mun Police Post", "ADDRESS_TC": "塔門警崗", "DATASET_EN": "Air Quality Monitoring Network of Hong Kong", "DATASET_TC": "香港空氣質素監測網絡", "EASTING": 855188.8, "LASTUPDATE": 1770171761000, "LATITUDE": 22.47131669, "LONGITUDE": 114.3607185, "NAME_EN": "Tap Mun Air Quality Monitoring Station", "NAME_TC": "塔門空氣質素監測站", "NORTHING": 836878.2000000001, "NSEARCH01_EN": "N.A.", "NSEARCH01_TC": "N.A.", "NSEARCH02_EN": "N.A.", "NSEARCH02_TC": "N.A.", "NSEARCH03_EN": "N.A.", "NSEARCH03_TC": "N.A.", "NSEARCH04_EN": "N.A.", "NSEARCH04_TC": "N.A.", "NSEARCH05_EN": "https://www.aqhi.gov.hk/en/monitoring-network/air-quality-monitoring-stations.html?mid=14", "NSEARCH05_TC": "https://www.aqhi.gov.hk/tc/monitoring-network/air-quality-monitoring-stations.html?mid=14", "OBJECTID": 11, "SEARCH01_EN": "GENERAL MONITORING STATION", "SEARCH01_TC": "一般監測站"}, "type": "Feature"}, {"geometry": {"coordinates": [840647.5999999996, 816001.1999999993], "type": "Point"}, "properties": {"ADDRESS_EN": "Sai Wan Ho Fire Station, 20 Wai Hang Street, Eastern, Hong Kong", "ADDRESS_TC": "香港東區惠亨街20號西灣河消防局", "DATASET_EN": "Air Quality Monitoring Network of Hong Kong", "DATASET_TC": "香港空氣質素監測網絡", "EASTING": 840647.6, "LASTUPDATE": 1770171722000, "LATITUDE": 22.28288555, "LONGITUDE": 114.21937156, "NAME_EN": "Eastern Air Quality Monitoring Station", "NAME_TC": "東區空氣質素監測站", "NORTHING": 816001.2000000001, "NSEARCH01_EN": "N.A.", "NSEARCH01_TC": "N.A.", "NSEARCH02_EN": "N.A.", "NSEARCH02_TC": "N.A.", "NSEARCH03_EN": "N.A.", "NSEARCH03_TC": "N.A.", "NSEARCH04_EN": "N.A.", "NSEARCH04_TC": "N.A.", "NSEARCH05_EN": "https://www.aqhi.gov.hk/en/monitoring-network/air-quality-monitoring-stations.html?mid=2", "NSEARCH05_TC": "https://www.aqhi.gov.hk/tc/monitoring-network/air-quality-monitoring-stations.html?mid=2", "OBJECTID": 12, "SEARCH01_EN": "GENERAL MONITORING STATION", "SEARCH01_TC": "一般監測站"}, "type": "Feature"}, {"geometry": {"coordinates": [812234.7000000002, 816683.9000000004], "type": "Point"}, "properties": {"ADDRESS_EN": "Tung Chung Health Centre , 6 Fu Tung Street, Tung Chung, New Territories", "ADDRESS_TC": "新界東涌富東街6號東涌健康院", "DATASET_EN": "Air Quality Monitoring Network of Hong Kong", "DATASET_TC": "香港空氣質素監測網絡", "EASTING": 812234.7000000001, "LASTUPDATE": 1770171633000, "LATITUDE": 22.28888887, "LONGITUDE": 113.94365902, "NAME_EN": "Tung Chung Air Quality Monitoring Station", "NAME_TC": "東涌空氣質素監測站", "NORTHING": 816683.9, "NSEARCH01_EN": "N.A.", "NSEARCH01_TC": "N.A.", "NSEARCH02_EN": "N.A.", "NSEARCH02_TC": "N.A.", "NSEARCH03_EN": "N.A.", "NSEARCH03_TC": "N.A.", "NSEARCH04_EN": "N.A.", "NSEARCH04_TC": "N.A.", "NSEARCH05_EN": "https://www.aqhi.gov.hk/en/monitoring-network/air-quality-monitoring-stations.html?mid=10", "NSEARCH05_TC": "https://www.aqhi.gov.hk/tc/monitoring-network/air-quality-monitoring-stations.html?mid=10", "OBJECTID": 13, "SEARCH01_EN": "GENERAL MONITORING STATION", "SEARCH01_TC": "一般監測站"}, "type": "Feature"}, {"geometry": {"coordinates": [815657.5999999996, 828002.1999999993], "type": "Point"}, "properties": {"ADDRESS_EN": "Tuen Mun Public Library, 1 Tuen Hi Road, Tuen Mun, N.T.", "ADDRESS_TC": "新界屯門屯喜路1號屯門公共圖書館", "DATASET_EN": "Air Quality Monitoring Network of Hong Kong", "DATASET_TC": "香港空氣質素監測網絡", "EASTING": 815657.6, "LASTUPDATE": 1770171590000, "LATITUDE": 22.39114326, "LONGITUDE": 113.97672832, "NAME_EN": "Tuen Mun Air Quality Monitoring Station", "NAME_TC": "屯門空氣質素監測站", "NORTHING": 828002.2000000001, "NSEARCH01_EN": "N.A.", "NSEARCH01_TC": "N.A.", "NSEARCH02_EN": "N.A.", "NSEARCH02_TC": "N.A.", "NSEARCH03_EN": "N.A.", "NSEARCH03_TC": "N.A.", "NSEARCH04_EN": "N.A.", "NSEARCH04_TC": "N.A.", "NSEARCH05_EN": "https://www.aqhi.gov.hk/en/monitoring-network/air-quality-monitoring-stations.html?mid=9", "NSEARCH05_TC": "https://www.aqhi.gov.hk/tc/monitoring-network/air-quality-monitoring-stations.html?mid=9", "OBJECTID": 14, "SEARCH01_EN": "GENERAL MONITORING STATION", "SEARCH01_TC": "一般監測站"}, "type": "Feature"}, {"geometry": {"coordinates": [844787.2999999998, 819851.6999999993], "type": "Point"}, "properties": {"ADDRESS_EN": "Tseung Kwan O Sports Centre, 9 Wan Lung Road, Tseung Kwan O, Sai Kung", "ADDRESS_TC": "西貢將軍澳運隆路9號將軍澳體育館", "DATASET_EN": "Air Quality Monitoring Network of Hong Kong", "DATASET_TC": "香港空氣質素監測網絡", "EASTING": 844787.3, "LASTUPDATE": 1770171533000, "LATITUDE": 22.31764241, "LONGITUDE": 114.25956137, "NAME_EN": "Tseung Kwan O Air Quality Monitoring Station", "NAME_TC": "將軍澳空氣質素監測站", "NORTHING": 819851.7000000001, "NSEARCH01_EN": "N.A.", "NSEARCH01_TC": "N.A.", "NSEARCH02_EN": "N.A.", "NSEARCH02_TC": "N.A.", "NSEARCH03_EN": "N.A.", "NSEARCH03_TC": "N.A.", "NSEARCH04_EN": "N.A.", "NSEARCH04_TC": "N.A.", "NSEARCH05_EN": "https://www.aqhi.gov.hk/en/monitoring-network/air-quality-monitoring-stations.html?mid=7", "NSEARCH05_TC": "https://www.aqhi.gov.hk/tc/monitoring-network/air-quality-monitoring-stations.html?mid=7", "OBJECTID": 15, "SEARCH01_EN": "GENERAL MONITORING STATION", "SEARCH01_TC": "一般監測站"}, "type": "Feature"}, {"geometry": {"coordinates": [841862.8664999995, 818962.6105000004], "type": "Point"}, "properties": {"ADDRESS_EN": "Kwun Tong Police Station, 9 Lei Yue Mun Road, Kwun Tong, Kowloon", "ADDRESS_TC": "觀塘警署九龍觀塘鯉魚門道九號", "DATASET_EN": "Air Quality Monitoring Network of Hong Kong", "DATASET_TC": "香港空氣質素監測網絡", "EASTING": 841862.86653358, "LASTUPDATE": 1770171457000, "LATITUDE": 22.3096251, "LONGITUDE": 114.23117417, "NAME_EN": "Kwun Tong Air Quality Monitoring Station", "NAME_TC": "觀塘空氣質素監測站", "NORTHING": 818962.61052284, "NSEARCH01_EN": "N.A.", "NSEARCH01_TC": "N.A.", "NSEARCH02_EN": "N.A.", "NSEARCH02_TC": "N.A.", "NSEARCH03_EN": "N.A.", "NSEARCH03_TC": "N.A.", "NSEARCH04_EN": "N.A.", "NSEARCH04_TC": "N.A.", "NSEARCH05_EN": "https://www.aqhi.gov.hk/en/monitoring-network/air-quality-monitoring-stations.html?mid=3", "NSEARCH05_TC": "https://www.aqhi.gov.hk/tc/monitoring-network/air-quality-monitoring-stations.html?mid=3", "OBJECTID": 16, "SEARCH01_EN": "GENERAL MONITORING STATION", "SEARCH01_TC": "一般監測站"}, "type": "Feature"}, {"geometry": {"coordinates": [831264, 839678], "type": "Point"}, "properties": {"ADDRESS_EN": "19 Pak Wo Road, Sheung Shui, New Territories.", "ADDRESS_TC": "新界上水百和路19號", "DATASET_EN": "Air Quality Monitoring Network of Hong Kong", "DATASET_TC": "香港空氣質素監測網絡", "EASTING": 831264, "LASTUPDATE": 1770171370000, "LATITUDE": 22.49669723, "LONGITUDE": 114.12824408, "NAME_EN": "North Air Quality Monitoring Station", "NAME_TC": "北區空氣質素監測站", "NORTHING": 839678, "NSEARCH01_EN": "N.A.", "NSEARCH01_TC": "N.A.", "NSEARCH02_EN": "N.A.", "NSEARCH02_TC": "N.A.", "NSEARCH03_EN": "N.A.", "NSEARCH03_TC": "N.A.", "NSEARCH04_EN": "N.A.", "NSEARCH04_TC": "N.A.", "NSEARCH05_EN": "https://www.aqhi.gov.hk/en/monitoring-network/air-quality-monitoring-stations.html?mid=13", "NSEARCH05_TC": "https://www.aqhi.gov.hk/tc/monitoring-network/air-quality-monitoring-stations.html?mid=13", "OBJECTID": 17, "SEARCH01_EN": "GENERAL MONITORING STATION", "SEARCH01_TC": "一般監測站"}, "type": "Feature"}, {"geometry": {"coordinates": [834543, 812078], "type": "Point"}, "properties": {"ADDRESS_EN": "No.1 Aberdeen Praya Road, Hong Kong.", "ADDRESS_TC": "香港香港仔海傍道1號", "DATASET_EN": "Air Quality Monitoring Network of Hong Kong", "DATASET_TC": "香港空氣質素監測網絡", "EASTING": 834543, "LASTUPDATE": 1770171290000, "LATITUDE": 22.24746092, "LONGITUDE": 114.1601401, "NAME_EN": "Southern Air Quality Monitoring Station", "NAME_TC": "南區空氣質素監測站", "NORTHING": 812078, "NSEARCH01_EN": "N.A.", "NSEARCH01_TC": "N.A.", "NSEARCH02_EN": "N.A.", "NSEARCH02_TC": "N.A.", "NSEARCH03_EN": "N.A.", "NSEARCH03_TC": "N.A.", "NSEARCH04_EN": "N.A.", "NSEARCH04_TC": "N.A.", "NSEARCH05_EN": "https://www.aqhi.gov.hk/en/monitoring-network/air-quality-monitoring-stations.html?mid=1", "NSEARCH05_TC": "https://www.aqhi.gov.hk/tc/monitoring-network/air-quality-monitoring-stations.html?mid=1", "OBJECTID": 18, "SEARCH01_EN": "GENERAL MONITORING STATION", "SEARCH01_TC": "一般監測站"}, "type": "Feature"}], "type": "FeatureCollection"}
