{"crs": {"properties": {"name": "urn:ogc:def:crs:EPSG::2326"}, "type": "name"}, "features": [{"geometry": {"coordinates": [[[833280.2433000011, 816577.9333000015], [833367.694600001, 816501.188000001], [833432.5300000012, 816444.290000001], [833454.5500000007, 816425.1300000027], [833471.2339000013, 816409.668800002]]], "type": "MultiLineString"}, "properties": {"CHINESESTREETNAME": "永樂街", "ENGLISHSTREETNAME": "WING LOK STREET", "LASTUPDATEDATE": 1693670400000, "OBJECTID": 16278, "STREETCENTRELINEID": 1810270379, "STREETCODE": 12733, "STREETTYPE": "Secondary Road", "Shape__Length": 254.5476198785054}, "type": "Feature"}, {"geometry": {"coordinates": [[[833538.4223000007, 816401.9619000014], [833560.540000001, 816396.8100000024], [833623.2600000007, 816381.0700000022]]], "type": "MultiLineString"}, "properties": {"CHINESESTREETNAME": "永樂街", "ENGLISHSTREETNAME": "WING LOK STREET", "LASTUPDATEDATE": 1693670400000, "OBJECTID": 17857, "STREETCENTRELINEID": 1810270432, "STREETCODE": 12733, "STREETTYPE": "Secondary Road", "Shape__Length": 87.37466817950121}, "type": "Feature"}, {"geometry": {"coordinates": [[[833623.2600000007, 816381.0700000022], [833682.3018000005, 816364.9017000012], [833700.558100001, 816359.5835000016]]], "type": "MultiLineString"}, "properties": {"CHINESESTREETNAME": "永樂街", "ENGLISHSTREETNAME": "WING LOK STREET", "LASTUPDATEDATE": 1696435200000, "OBJECTID": 27964, "STREETCENTRELINEID": 1810270471, "STREETCODE": 12733, "STREETTYPE": "Secondary Road", "Shape__Length": 80.2307318810866}, "type": "Feature"}, {"geometry": {"coordinates": [[[833700.558100001, 816359.5835000016], [833745.7000000011, 816346.620000001]]], "type": "MultiLineString"}, "properties": {"CHINESESTREETNAME": "永樂街", "ENGLISHSTREETNAME": "WING LOK STREET", "LASTUPDATEDATE": 1696435200000, "OBJECTID": 28024, "STREETCENTRELINEID": 1810270487, "STREETCODE": 12733, "STREETTYPE": "Secondary Road", "Shape__Length": 46.966407866565355}, "type": "Feature"}, {"geometry": {"coordinates": [[[833745.7000000011, 816346.620000001], [833750.0000000009, 816345.682500001], [833788.9707000004, 816337.1859000027], [833825.3657000009, 816329.0102000013]]], "type": "MultiLineString"}, "properties": {"CHINESESTREETNAME": "永樂街", "ENGLISHSTREETNAME": "WING LOK STREET", "LASTUPDATEDATE": 1693670400000, "OBJECTID": 28027, "STREETCENTRELINEID": 1810270507, "STREETCODE": 12733, "STREETTYPE": "Secondary Road", "Shape__Length": 81.58918104809977}, "type": "Feature"}, {"geometry": {"coordinates": [[[833825.3657000009, 816329.0102000013], [833842.3587000007, 816325.7212000024], [833866.8083000006, 816323.5848000012], [833898.8192000007, 816320.787800001], [833914.445700001, 816324.5172000024]]], "type": "MultiLineString"}, "properties": {"CHINESESTREETNAME": "永樂街", "ENGLISHSTREETNAME": "WING LOK STREET", "LASTUPDATEDATE": 1693670400000, "OBJECTID": 28029, "STREETCENTRELINEID": 1810270525, "STREETCODE": 12733, "STREETTYPE": "Secondary Road", "Shape__Length": 90.04935647912848}, "type": "Feature"}], "type": "FeatureCollection"}
