{"crs": {"properties": {"name": "urn:ogc:def:crs:EPSG::2326"}, "type": "name"}, "features": [{"geometry": {"coordinates": [[[834515.7887000004, 821275.1455000024], [834530.3254000004, 821292.4882000014]]], "type": "MultiLineString"}, "properties": {"CHINESESTREETNAME": "欽州街", "ENGLISHSTREETNAME": "YEN CHOW STREET", "LASTUPDATEDATE": 1693670400000, "OBJECTID": 3393, "STREETCENTRELINEID": 1810264475, "STREETCODE": 12852, "STREETTYPE": "Main Road", "Shape__Length": 22.629292745169042}, "type": "Feature"}, {"geometry": {"coordinates": [[[834392.5000000009, 821128.0625000019], [834436.3750000009, 821180.4375000019]]], "type": "MultiLineString"}, "properties": {"CHINESESTREETNAME": "欽州街", "ENGLISHSTREETNAME": "YEN CHOW STREET", "LASTUPDATEDATE": 1693670400000, "OBJECTID": 3547, "STREETCENTRELINEID": 1810264623, "STREETCODE": 12852, "STREETTYPE": "Main Road", "Shape__Length": 68.32390687014319}, "type": "Feature"}, {"geometry": {"coordinates": [[[834631.0625000009, 821412.6875000019], [834677.0625000009, 821467.5625000019]]], "type": "MultiLineString"}, "properties": {"CHINESESTREETNAME": "欽州街", "ENGLISHSTREETNAME": "YEN CHOW STREET", "LASTUPDATEDATE": 1693670400000, "OBJECTID": 4622, "STREETCENTRELINEID": 1810264319, "STREETCODE": 12852, "STREETTYPE": "Main Road", "Shape__Length": 71.60492737933612}, "type": "Feature"}, {"geometry": {"coordinates": [[[834244.1493000006, 820951.2786000017], [834227.7519000005, 820931.4795000013], [834202.9500000011, 820901.5324000027], [834187.1875000009, 820882.5000000019], [834182.8146000011, 820877.1855000015]]], "type": "MultiLineString"}, "properties": {"CHINESESTREETNAME": "欽州街", "ENGLISHSTREETNAME": "YEN CHOW STREET", "LASTUPDATEDATE": 1693670400000, "OBJECTID": 4637, "STREETCENTRELINEID": 1810264920, "STREETCODE": 12852, "STREETTYPE": "Secondary Road", "Shape__Length": 96.18596130398427}, "type": "Feature"}, {"geometry": {"coordinates": [[[834572.1185000008, 821342.3899000026], [834589.3125000009, 821362.9375000019]]], "type": "MultiLineString"}, "properties": {"CHINESESTREETNAME": "欽州街", "ENGLISHSTREETNAME": "YEN CHOW STREET", "LASTUPDATEDATE": 1693670400000, "OBJECTID": 4650, "STREETCENTRELINEID": 1810264399, "STREETCODE": 12852, "STREETTYPE": "Main Road", "Shape__Length": 26.792489651638128}, "type": "Feature"}, {"geometry": {"coordinates": [[[834350.7500000009, 821078.3125000019], [834392.5000000009, 821128.0625000019]]], "type": "MultiLineString"}, "properties": {"CHINESESTREETNAME": "欽州街", "ENGLISHSTREETNAME": "YEN CHOW STREET", "LASTUPDATEDATE": 1693670400000, "OBJECTID": 5758, "STREETCENTRELINEID": 1810264700, "STREETCODE": 12852, "STREETTYPE": "Main Road", "Shape__Length": 64.94709385338193}, "type": "Feature"}, {"geometry": {"coordinates": [[[834244.1493000006, 820951.2786000017], [834284.5000000009, 821000.0000000019], [834286.1119000008, 821001.8762000017], [834286.8488000007, 821002.7339000013], [834286.9012000011, 821002.794900002], [834294.1264000004, 821011.2045000009], [834295.6571000004, 821012.9861000013], [834298.540000001, 821016.3416000027], [834302.537800001, 821020.9948000014], [834305.0887000011, 821023.9639000017], [834305.2162000006, 821024.1124000009], [834311.1875000009, 821031.0625000019]]], "type": "MultiLineString"}, "properties": {"CHINESESTREETNAME": "欽州街", "ENGLISHSTREETNAME": "YEN CHOW STREET", "LASTUPDATEDATE": 1693670400000, "OBJECTID": 7339, "STREETCENTRELINEID": 1810264828, "STREETCODE": 12852, "STREETTYPE": "Secondary Road", "Shape__Length": 104.21342802487703}, "type": "Feature"}, {"geometry": {"coordinates": [[[834718.4375000009, 821516.9375000019], [834758.7500000009, 821565.0000000019]]], "type": "MultiLineString"}, "properties": {"CHINESESTREETNAME": "欽州街", "ENGLISHSTREETNAME": "YEN CHOW STREET", "LASTUPDATEDATE": 1693670400000, "OBJECTID": 7346, "STREETCENTRELINEID": 1810264171, "STREETCODE": 12852, "STREETTYPE": "Main Road", "Shape__Length": 62.730387871429585}, "type": "Feature"}, {"geometry": {"coordinates": [[[834589.3125000009, 821362.9375000019], [834631.0625000009, 821412.6875000019]]], "type": "MultiLineString"}, "properties": {"CHINESESTREETNAME": "欽州街", "ENGLISHSTREETNAME": "YEN CHOW STREET", "LASTUPDATEDATE": 1693670400000, "OBJECTID": 7361, "STREETCENTRELINEID": 1810264376, "STREETCODE": 12852, "STREETTYPE": "Main Road", "Shape__Length": 64.94709385338193}, "type": "Feature"}, {"geometry": {"coordinates": [[[834478.0000000009, 821230.0625000019], [834515.7887000004, 821275.1455000024]]], "type": "MultiLineString"}, "properties": {"CHINESESTREETNAME": "欽州街", "ENGLISHSTREETNAME": "YEN CHOW STREET", "LASTUPDATEDATE": 1693670400000, "OBJECTID": 7370, "STREETCENTRELINEID": 1810264524, "STREETCODE": 12852, "STREETTYPE": "Main Road", "Shape__Length": 58.82569792785813}, "type": "Feature"}, {"geometry": {"coordinates": [[[834677.0625000009, 821467.5625000019], [834718.4375000009, 821516.9375000019]]], "type": "MultiLineString"}, "properties": {"CHINESESTREETNAME": "欽州街", "ENGLISHSTREETNAME": "YEN CHOW STREET", "LASTUPDATEDATE": 1693670400000, "OBJECTID": 8377, "STREETCENTRELINEID": 1810264245, "STREETCODE": 12852, "STREETTYPE": "Main Road", "Shape__Length": 64.41879578197656}, "type": "Feature"}, {"geometry": {"coordinates": [[[834551.5000000009, 821317.7500000019], [834572.1185000008, 821342.3899000026]]], "type": "MultiLineString"}, "properties": {"CHINESESTREETNAME": "欽州街", "ENGLISHSTREETNAME": "YEN CHOW STREET", "LASTUPDATEDATE": 1693670400000, "OBJECTID": 12094, "STREETCENTRELINEID": 1810264427, "STREETCODE": 12852, "STREETTYPE": "Main Road", "Shape__Length": 32.12860430040829}, "type": "Feature"}, {"geometry": {"coordinates": [[[834530.3254000004, 821292.4882000014], [834551.5000000009, 821317.7500000019]]], "type": "MultiLineString"}, "properties": {"CHINESESTREETNAME": "欽州街", "ENGLISHSTREETNAME": "YEN CHOW STREET", "LASTUPDATEDATE": 1693670400000, "OBJECTID": 12156, "STREETCENTRELINEID": 1810264451, "STREETCODE": 12852, "STREETTYPE": "Main Road", "Shape__Length": 32.96243656714902}, "type": "Feature"}, {"geometry": {"coordinates": [[[834436.3750000009, 821180.4375000019], [834478.0000000009, 821230.0625000019]]], "type": "MultiLineString"}, "properties": {"CHINESESTREETNAME": "欽州街", "ENGLISHSTREETNAME": "YEN CHOW STREET", "LASTUPDATEDATE": 1693670400000, "OBJECTID": 12169, "STREETCENTRELINEID": 1810264560, "STREETCODE": 12852, "STREETTYPE": "Main Road", "Shape__Length": 64.77099080606996}, "type": "Feature"}, {"geometry": {"coordinates": [[[834311.1875000009, 821031.0625000019], [834350.7500000009, 821078.3125000019]]], "type": "MultiLineString"}, "properties": {"CHINESESTREETNAME": "欽州街", "ENGLISHSTREETNAME": "YEN CHOW STREET", "LASTUPDATEDATE": 1693670400000, "OBJECTID": 16004, "STREETCENTRELINEID": 1810264738, "STREETCODE": 12852, "STREETTYPE": "Main Road", "Shape__Length": 61.625919110792985}, "type": "Feature"}, {"geometry": {"coordinates": [[[834758.7500000009, 821565.0000000019], [834789.9222000008, 821602.1942000017]]], "type": "MultiLineString"}, "properties": {"CHINESESTREETNAME": "欽州街", "ENGLISHSTREETNAME": "YEN CHOW STREET", "LASTUPDATEDATE": 1756396800000, "OBJECTID": 29939, "STREETCENTRELINEID": 1810280065, "STREETCODE": 12852, "STREETTYPE": "Main Road", "Shape__Length": 48.52952262756471}, "type": "Feature"}], "type": "FeatureCollection"}
